[{"OBJECT_NAME":"FLOCK 4G-21","OBJECT_ID":"2025-009AU","EPOCH":"2026-03-09T04:40:37.351200","MEAN_MOTION":15.28381075,"ECCENTRICITY":4.655e-5,"INCLINATION":97.4032,"RA_OF_ASC_NODE":151.1274,"ARG_OF_PERICENTER":329.5782,"MEAN_ANOMALY":30.5431,"EPHEMERIS_TYPE":0,"CLASSIFICATION_TYPE":"U","NORAD_CAT_ID":62651,"ELEMENT_SET_NO":999,"REV_AT_EPOCH":6367,"BSTAR":0.00049618643,"MEAN_MOTION_DOT":0.00013648,"MEAN_MOTION_DDOT":0},{"OBJECT_NAME":"STARLINK-36334","OBJECT_ID":"2026-008AC","EPOCH":"2026-03-09T09:38:53.657088","MEAN_MOTION":15.27631199,"ECCENTRICITY":0.00046191,"INCLINATION":43.0015,"RA_OF_ASC_NODE":207.2306,"ARG_OF_PERICENTER":300.6201,"MEAN_ANOMALY":59.4195,"EPHEMERIS_TYPE":0,"CLASSIFICATION_TYPE":"U","NORAD_CAT_ID":67471,"ELEMENT_SET_NO":999,"REV_AT_EPOCH":952,"BSTAR":0.0015508272,"MEAN_MOTION_DOT":0.00042737,"MEAN_MOTION_DDOT":0}]
